STARLINK-3356           
1 51133U 22005AF  22165.78191538 -.00000308  00000+0 -12299-5 0  9990
2 51133  53.2167 301.9492 0001748  53.0400 307.0752 15.08836888 22822
STARLINK-3183           
1 51134U 22005AG  22166.47932055 -.00000732  00000+0 -27876-4 0  9992
2 51134  53.2180 288.7926 0002080  37.4825 322.6312 15.08824508 24192
STARLINK-3363           
1 51135U 22005AH  22166.50688545 -.00000496  00000+0 -13101-4 0  9992
2 51135  53.2188 298.6951 0001696  50.1031 310.0110 15.08832028 24050
STARLINK-3253           
1 51136U 22005AJ  22166.37536015 -.00001095  00000+0 -50689-4 0  9990
2 51136  53.2172 299.2879 0001789  45.9745 314.1395 15.08836162 24049
STARLINK-3180           
1 51137U 22005AK  22166.49583773 -.00000758  00000+0 -29513-4 0  9994
2 51137  53.2188 298.7298 0002140  44.2889 315.8275 15.08839383 24053
STARLINK-3177           
1 51138U 22005AL  22166.37072001 -.00000868  00000+0 -36422-4 0  9998
2 51138  53.2169 299.2943 0001765  58.6452 301.4713 15.08837297 24031
STARLINK-3172           
1 51139U 22005AM  22165.89234064 -.00002662  00000+0 -14928-3 0  9994
2 51139  53.2204 301.4377 0001639  57.5010 302.6140 15.08822001 23962
STARLINK-3175           
1 51140U 22005AN  22166.43328499 -.00001610  00000+0 -83071-4 0  9991
2 51140  53.2174 299.0168 0001829  44.6544 315.4595 15.08840558 24043
STARLINK-3179           
1 51141U 22005AP  22166.48112141 -.00003486  00000+0 -20105-3 0  9993
2 51141  53.2194 298.7954 0001838  44.2921 315.8218 15.08830157 24051
STARLINK-3369           
1 51142U 22005AQ  22165.91667824 -.00002951  00000+0 -16740-3 0  9990
2 51142  53.2201 291.3227 0001945  38.1394 164.1731 15.08831132  1300
STARLINK-3184           
1 51143U 22005AR  22166.13427233  .00002253  00000+0  15961-3 0  9991
2 51143  53.2169 310.3694 0002053  36.1064 324.0066 15.08835876 23858
STARLINK-3185           
1 51144U 22005AS  22165.75615485  .00000277  00000+0  35522-4 0  9997
2 51144  53.2197 302.0489 0001671  58.0330 302.0824 15.08838404 22839
STARLINK-3365           
1 51145U 22005AT  22166.46179510  .00002194  00000+0  15592-3 0  9995
2 51145  53.2164 308.9001 0002481  32.1676 327.9467 15.08839908 23903
STARLINK-3354           
1 51146U 22005AU  22166.42592146 -.00000937  00000+0 -40783-4 0  9992
2 51146  53.2176 299.0406 0001870  54.1855 305.9310 15.08835524 24049
STARLINK-3352           
1 51147U 22005AV  22165.67427314 -.00001012  00000+0 -45524-4 0  9996
2 51147  53.2172 312.4301 0001386  67.9641 292.1498 15.08837106 22676
STARLINK-3359           
1 51148U 22005AW  22165.79571127  .00000769  00000+0  66382-4 0  9993
2 51148  53.2177 311.8795 0001836  43.3622 316.7515 15.08842219 22695
STARLINK-3360           
1 51149U 22005AX  22166.52068164 -.00000302  00000+0 -84343-6 0  9992
2 51149  53.2171 308.6219 0002047  37.9065 322.2071 15.08832997 23917
STARLINK-3357           
1 51150U 22005AY  22166.14623809 -.00001422  00000+0 -71252-4 0  9992
2 51150  53.2181 300.2970 0001769  53.5034 306.6120 15.08838924 24000
STARLINK-3361           
1 51151U 22005AZ  22165.78468143 -.00001340  00000+0 -66129-4 0  9996
2 51151  53.2164 311.9211 0001837  50.8274 309.2881 15.08834071 22696
STARLINK-3364           
1 51152U 22005BA  22165.92083986  .00000621  00000+0  57123-4 0  9994
2 51152  53.2170 311.3134 0001969  55.2792 304.8385 15.08837559 23822
