OBJECT_NAME,OBJECT_ID,EPOCH,MEAN_MOTION,ECCENTRICITY,INCLINATION,RA_OF_ASC_NODE,ARG_OF_PERICENTER,MEAN_ANOMALY,EPHEMERIS_TYPE,CLASSIFICATION_TYPE,NORAD_CAT_ID,ELEMENT_SET_NO,REV_AT_EPOCH,BSTAR,MEAN_MOTION_DOT,MEAN_MOTION_DDOT
STARLINK-3356,2022-005AF,2022-06-14T18:45:57.488832,15.08836888,.0001748,53.2167,301.9492,53.0400,307.0752,0,U,51133,999,2282,-.12299E-5,-.308E-5,0
STARLINK-3183,2022-005AG,2022-06-15T11:30:13.295520,15.08824508,.000208,53.2180,288.7926,37.4825,322.6312,0,U,51134,999,2419,-.27876E-4,-.732E-5,0
STARLINK-3363,2022-005AH,2022-06-15T12:09:54.902880,15.08832028,.0001696,53.2188,298.6951,50.1031,310.0110,0,U,51135,999,2405,-.13101E-4,-.496E-5,0
STARLINK-3253,2022-005AJ,2022-06-15T09:00:31.116960,15.08836162,.0001789,53.2172,299.2879,45.9745,314.1395,0,U,51136,999,2404,-.50689E-4,-.1095E-4,0
STARLINK-3180,2022-005AK,2022-06-15T11:54:00.379872,15.08839383,.000214,53.2188,298.7298,44.2889,315.8275,0,U,51137,999,2405,-.29513E-4,-.758E-5,0
STARLINK-3177,2022-005AL,2022-06-15T08:53:50.208864,15.08837297,.0001765,53.2169,299.2943,58.6452,301.4713,0,U,51138,999,2403,-.36422E-4,-.868E-5,0
STARLINK-3172,2022-005AM,2022-06-14T21:24:58.231296,15.08822001,.0001639,53.2204,301.4377,57.5010,302.6140,0,U,51139,999,2396,-.14928E-3,-.2662E-4,0
STARLINK-3175,2022-005AN,2022-06-15T10:23:55.823136,15.08840558,.0001829,53.2174,299.0168,44.6544,315.4595,0,U,51140,999,2404,-.83071E-4,-.161E-4,0
STARLINK-3179,2022-005AP,2022-06-15T11:32:48.889824,15.08830157,.0001838,53.2194,298.7954,44.2921,315.8218,0,U,51141,999,2405,-.20105E-3,-.3486E-4,0
STARLINK-3369,2022-005AQ,2022-06-14T22:00:00.999936,15.08831132,.0001945,53.2201,291.3227,38.1394,164.1731,0,U,51142,999,130,-.1674E-3,-.2951E-4,0
STARLINK-3184,2022-005AR,2022-06-15T03:13:21.129312,15.08835876,.0002053,53.2169,310.3694,36.1064,324.0066,0,U,51143,999,2385,.15961E-3,.2253E-4,0
STARLINK-3185,2022-005AS,2022-06-14T18:08:51.779040,15.08838404,.0001671,53.2197,302.0489,58.0330,302.0824,0,U,51144,999,2283,.35522E-4,.277E-5,0
STARLINK-3365,2022-005AT,2022-06-15T11:04:59.096640,15.08839908,.0002481,53.2164,308.9001,32.1676,327.9467,0,U,51145,999,2390,.15592E-3,.2194E-4,0
STARLINK-3354,2022-005AU,2022-06-15T10:13:19.614144,15.08835524,.000187,53.2176,299.0406,54.1855,305.9310,0,U,51146,999,2404,-.40783E-4,-.937E-5,0
STARLINK-3352,2022-005AV,2022-06-14T16:10:57.199296,15.08837106,.0001386,53.2172,312.4301,67.9641,292.1498,0,U,51147,999,2267,-.45524E-4,-.1012E-4,0
STARLINK-3359,2022-005AW,2022-06-14T19:05:49.453728,15.08842219,.0001836,53.2177,311.8795,43.3622,316.7515,0,U,51148,999,2269,.66382E-4,.769E-5,0
STARLINK-3360,2022-005AX,2022-06-15T12:29:46.893696,15.08832997,.0002047,53.2171,308.6219,37.9065,322.2071,0,U,51149,999,2391,-.84343E-6,-.302E-5,0
STARLINK-3357,2022-005AY,2022-06-15T03:30:34.970976,15.08838924,.0001769,53.2181,300.2970,53.5034,306.6120,0,U,51150,999,2400,-.71252E-4,-.1422E-4,0
STARLINK-3361,2022-005AZ,2022-06-14T18:49:56.475552,15.08834071,.0001837,53.2164,311.9211,50.8274,309.2881,0,U,51151,999,2269,-.66129E-4,-.134E-4,0
STARLINK-3364,2022-005BA,2022-06-14T22:06:00.563904,15.08837559,.0001969,53.2170,311.3134,55.2792,304.8385,0,U,51152,999,2382,.57123E-4,.621E-5,0
